[{"OBJECT_NAME":"RIGIDSPHERE 2 (LCS 4)","OBJECT_ID":"1971-067E","EPOCH":"2026-03-09T21:07:13.855872","MEAN_MOTION":14.3774295,"ECCENTRICITY":0.00588572,"INCLINATION":87.6274,"RA_OF_ASC_NODE":6.3575,"ARG_OF_PERICENTER":200.3798,"MEAN_ANOMALY":159.5053,"EPHEMERIS_TYPE":0,"CLASSIFICATION_TYPE":"U","NORAD_CAT_ID":5398,"ELEMENT_SET_NO":999,"REV_AT_EPOCH":85961,"BSTAR":0.00030050164,"MEAN_MOTION_DOT":9.4e-6,"MEAN_MOTION_DDOT":0},{"OBJECT_NAME":"OPS 3367 A","OBJECT_ID":"1964-002B","EPOCH":"2026-03-09T17:21:13.273056","MEAN_MOTION":14.29672522,"ECCENTRICITY":0.00153478,"INCLINATION":98.9757,"RA_OF_ASC_NODE":355.8422,"ARG_OF_PERICENTER":113.6567,"MEAN_ANOMALY":246.6227,"EPHEMERIS_TYPE":0,"CLASSIFICATION_TYPE":"U","NORAD_CAT_ID":734,"ELEMENT_SET_NO":999,"REV_AT_EPOCH":23455,"BSTAR":8.3740512e-5,"MEAN_MOTION_DOT":1.68e-6,"MEAN_MOTION_DDOT":0}]
